NORAD_CAT_ID,OBJECT_NAME,OBJECT_TYPE,EPOCH,MEAN_MOTION,ECCENTRICITY,INCLINATION,RA_OF_ASC_NODE,ARG_OF_PERICENTER,MEAN_ANOMALY,BSTAR,MEAN_MOTION_DOT,MEAN_MOTION_DDOT,TLE_LINE0,TLE_LINE1,TLE_LINE2,SEMIMAJOR_AXIS,PERIOD,APOGEE,PERIGEE,DECAYED
53800.0,STARLINK-4720,PAYLOAD,2023-10-06 16:46:35,15.08835642,0.0001441,53.2167,276.9424,92.7804,267.3353,4.8068e-05,4.77e-06,0.0,0 STARLINK-4720,1 53800U 22111AD  23279.69902431  .00000477  00000-0  48068-4 0  9998,2 53800  53.2167 276.9424 0001441  92.7804 267.3353 15.08835642 60216,6917.894,95.438,540.756,538.762,0.0
53800.0,STARLINK-4720,PAYLOAD,2023-10-07 00:43:31,15.0883376,0.0001584,53.2171,275.4563,95.4669,264.6504,-1.2677e-05,-4.9e-06,0.0,0 STARLINK-4720,1 53800U 22111AD  23280.03022928 -.00000490  00000-0 -12677-4 0  9996,2 53800  53.2171 275.4563 0001584  95.4669 264.6504 15.08833760 59457,6917.899,95.438,540.86,538.669,0.0
53800.0,STARLINK-4720,PAYLOAD,2023-10-07 10:15:50,15.08840476,0.0001671,53.2182,273.6711,99.5234,260.5947,5.143e-05,5.31e-06,0.0,0 STARLINK-4720,1 53800U 22111AD  23280.42766291  .00000531  00000-0  51430-4 0  9991,2 53800  53.2182 273.6711 0001671  99.5234 260.5947 15.08840476 59519,6917.879,95.438,540.9,538.588,0.0
53800.0,STARLINK-4720,PAYLOAD,2023-10-07 16:37:22,15.08839867,0.0001476,53.2169,272.4795,86.6596,273.4565,-1.5062e-05,-5.28e-06,0.0,0 STARLINK-4720,1 53800U 22111AD  23280.69262532 -.00000528  00000-0 -15062-4 0  9998,2 53800  53.2169 272.4795 0001476  86.6596 273.4565 15.08839867 60360,6917.881,95.438,540.767,538.725,0.0
53800.0,STARLINK-4720,PAYLOAD,2023-10-08 00:34:18,15.08836651,0.0001494,53.2175,270.9936,94.5759,265.5404,2.0164e-05,3.3e-07,0.0,0 STARLINK-4720,1 53800U 22111AD  23281.02382848  .00000033  00000-0  20164-4 0  9997,2 53800  53.2175 270.9936 0001494  94.5759 265.5404 15.08836651 59603,6917.891,95.438,540.789,538.722,0.0
53800.0,STARLINK-4720,PAYLOAD,2023-10-08 08:31:13,15.08843993,0.0001637,53.2181,269.5062,95.3759,264.742,8.1074e-05,1.003e-05,0.0,0 STARLINK-4720,1 53800U 22111AD  23281.35502227  .00001003  00000-0  81074-4 0  9993,2 53800  53.2181 269.5062 0001637  95.3759 264.7420 15.08843993 59653,6917.868,95.437,540.866,538.601,0.0
53800.0,STARLINK-4720,PAYLOAD,2023-10-08 16:28:09,15.0884181,0.0001556,53.2173,268.0218,89.8042,270.3128,2.2614e-05,7.2e-07,0.0,0 STARLINK-4720,1 53800U 22111AD  23281.68622559  .00000072  00000-0  22614-4 0  9990,2 53800  53.2173 268.0218 0001556  89.8042 270.3128 15.08841810 60515,6917.875,95.437,540.816,538.663,0.0
53800.0,STARLINK-4720,PAYLOAD,2023-10-09 08:22:00,15.08846208,0.0001531,53.2178,265.0478,89.879,270.2378,6.2588e-05,7.08e-06,0.0,0 STARLINK-4720,1 53800U 22111AD  23282.34862095  .00000708  00000-0  62588-4 0  9995,2 53800  53.2178 265.0478 0001531  89.8790 270.2378 15.08846208 60611,6917.861,95.437,540.786,538.667,0.0
53800.0,STARLINK-4720,PAYLOAD,2023-10-10 08:12:47,15.08852733,0.0001536,53.2182,260.5874,93.4657,266.6511,0.0001052,1.387e-05,0.0,0 STARLINK-4720,1 53800U 22111AD  23283.34221377  .00001387  00000-0  10520-3 0  9990,2 53800  53.2182 260.5874 0001536  93.4657 266.6511 15.08852733 59957,6917.841,95.437,540.769,538.644,0.0
53800.0,STARLINK-4720,PAYLOAD,2023-10-10 16:09:44,15.08834395,0.0001826,53.218,259.1008,94.9718,265.1483,-0.00011321,-2.089e-05,0.0,0 STARLINK-4720,1 53800U 22111AD  23283.67343319 -.00002089  00000-0 -11321-3 0  9999,2 53800  53.2180 259.1008 0001826  94.9718 265.1483 15.08834395 60008,6917.898,95.438,541.026,538.499,0.0
53800.0,STARLINK-4720,PAYLOAD,2023-10-11 08:03:35,15.08839634,0.0001725,53.2188,256.125,105.73,254.3882,-7.7864e-05,-1.527e-05,0.0,0 STARLINK-4720,1 53800U 22111AD  23284.33583055 -.00001527  00000-0 -77864-4 0  9997,2 53800  53.2188 256.1250 0001725 105.7300 254.3882 15.08839634 60103,6917.882,95.438,540.94,538.553,0.0
53800.0,STARLINK-4720,PAYLOAD,2023-10-12 04:43:35,15.08854337,0.0001545,53.2175,252.261,129.2132,230.8998,-4.7684e-05,-1.047e-05,0.0,0 STARLINK-4720,1 53800U 22111AD  23285.19694389 -.00001047  00000-0 -47684-4 0  9999,2 53800  53.2175 252.2610 0001545 129.2132 230.8998 15.08854337 60238,6917.837,95.437,540.77,538.633,0.0
53800.0,STARLINK-4720,PAYLOAD,2023-10-12 07:54:22,15.0885495,0.0001561,53.2176,251.6662,130.5702,229.5426,-3.9844e-05,-9.22e-06,0.0,0 STARLINK-4720,1 53800U 22111AD  23285.32942232 -.00000922  00000-0 -39844-4 0  9997,2 53800  53.2176 251.6662 0001561 130.5702 229.5426 15.08854950 61069,6917.835,95.437,540.78,538.62,0.0
53800.0,STARLINK-4720,PAYLOAD,2023-10-13 04:34:23,15.08840949,0.0001467,53.2181,247.8016,97.6442,262.4717,8.5982e-05,1.081e-05,0.0,0 STARLINK-4720,1 53800U 22111AD  23286.19054965  .00001081  00000-0  85982-4 0  9999,2 53800  53.2181 247.8016 0001467  97.6442 262.4717 15.08840949 60380,6917.877,95.437,540.757,538.728,0.0
53800.0,STARLINK-4720,PAYLOAD,2023-10-13 14:06:42,15.08842785,0.0001426,53.218,246.0166,96.2946,263.8209,7.6977e-05,9.37e-06,0.0,0 STARLINK-4720,1 53800U 22111AD  23286.58798837  .00000937  00000-0  76977-4 0  9998,2 53800  53.2180 246.0166 0001426  96.2946 263.8209 15.08842785 61253,6917.872,95.437,540.723,538.75,0.0
53800.0,STARLINK-4720,PAYLOAD,2023-10-14 13:57:29,15.08844826,0.0001149,53.2164,241.5573,84.4215,275.6909,-2.3517e-05,-6.62e-06,0.0,0 STARLINK-4720,1 53800U 22111AD  23287.58159021 -.00000662  00000-0 -23517-4 0  9994,2 53800  53.2164 241.5573 0001149  84.4215 275.6909 15.08844826 61400,6917.866,95.437,540.526,538.936,0.0
53800.0,STARLINK-4720,PAYLOAD,2023-10-15 04:15:59,15.08829431,0.000152,53.2177,238.8805,85.3225,274.794,-0.00018504,-3.231e-05,0.0,0 STARLINK-4720,1 53800U 22111AD  23288.17777241 -.00003231  00000-0 -18504-3 0  9994,2 53800  53.2177 238.8805 0001520  85.3225 274.7940 15.08829431 60684,6917.913,95.438,540.829,538.726,0.0
53800.0,STARLINK-4720,PAYLOAD,2023-10-15 05:51:22,15.08836039,0.0001348,53.2172,238.5824,97.7873,262.3272,-0.00013544,-2.443e-05,0.0,0 STARLINK-4720,1 53800U 22111AD  23288.24400594 -.00002443  00000-0 -13544-3 0  9999,2 53800  53.2172 238.5824 0001348  97.7873 262.3272 15.08836039 60695,6917.892,95.438,540.69,538.825,0.0
53800.0,STARLINK-4720,PAYLOAD,2023-10-15 13:48:17,15.08841308,0.0001546,53.2182,237.0979,93.1506,266.9663,-5.1072e-05,-1.101e-05,0.0,0 STARLINK-4720,1 53800U 22111AD  23288.57520170 -.00001101  00000-0 -51072-4 0  9997,2 53800  53.2182 237.0979 0001546  93.1506 266.9663 15.08841308 61559,6917.876,95.437,540.811,538.672,0.0
53800.0,STARLINK-4720,PAYLOAD,2023-10-16 04:06:44,15.08856284,0.0001476,53.2176,234.4223,91.1151,269.0011,0.00013412,1.848e-05,0.0,0 STARLINK-4720,1 53800U 22111AD  23289.17134699  .00001848  00000-0  13412-3 0  9992,2 53800  53.2176 234.4223 0001476  91.1151 269.0011 15.08856284 60831,6917.831,95.437,540.717,538.675,0.0
53800.0,STARLINK-4720,PAYLOAD,2023-10-16 20:00:37,15.08828795,0.0001771,53.2191,231.4468,83.7533,276.3661,0.00017446,2.489e-05,0.0,0 STARLINK-4720,1 53800U 22111AD  23289.83376488  .00002489  00000-0  17446-3 0  9992,2 53800  53.2191 231.4468 0001771  83.7533 276.3661 15.08828795 61744,6917.915,95.438,541.005,538.554,0.0
53800.0,STARLINK-4720,PAYLOAD,2023-10-17 13:29:51,15.08839692,0.0001437,53.2168,228.1748,90.0909,270.0248,7.1998e-05,8.58e-06,0.0,0 STARLINK-4720,1 53800U 22111AD  23290.56240203  .00000858  00000-0  71998-4 0  9990,2 53800  53.2168 228.1748 0001437  90.0909 270.0248 15.08839692 61851,6917.881,95.438,540.74,538.752,0.0
53800.0,STARLINK-4720,PAYLOAD,2023-10-18 02:12:55,15.08855191,0.0001478,53.217,225.7958,96.5214,263.5946,-5.2693e-05,-1.127e-05,0.0,0 STARLINK-4720,1 53800U 22111AD  23291.09231467 -.00001127  00000-0 -52693-4 0  9994,2 53800  53.2170 225.7958 0001478  96.5214 263.5946 15.08855191 61938,6917.834,95.437,540.721,538.677,0.0
53800.0,STARLINK-4720,PAYLOAD,2023-10-18 05:23:41,15.08855592,0.0001563,53.2174,225.2003,108.9976,251.1186,-1.8444e-06,-3.17e-06,0.0,0 STARLINK-4720,1 53800U 22111AD  23291.22479125 -.00000317  00000-0 -18444-5 0  9991,2 53800  53.2174 225.2003 0001563 108.9976 251.1186 15.08855592 61143,6917.833,95.437,540.779,538.616,0.0
53800.0,STARLINK-4720,PAYLOAD,2023-10-18 19:42:10,15.08839962,0.0001608,53.2161,222.5248,101.8652,258.252,5.488e-05,5.85e-06,0.0,0 STARLINK-4720,1 53800U 22111AD  23291.82095841  .00000585  00000-0  54880-4 0  9994,2 53800  53.2161 222.5248 0001608 101.8652 258.2520 15.08839962 61236,6917.881,95.438,540.858,538.633,0.0
53800.0,STARLINK-4720,PAYLOAD,2023-10-19 02:03:42,15.08848266,0.0001733,53.215,221.3349,101.3539,258.7647,0.00011772,1.586e-05,0.0,0 STARLINK-4720,1 53800U 22111AD  23292.08591068  .00001586  00000-0  11772-3 0  9999,2 53800  53.2150 221.3349 0001733 101.3539 258.7647 15.08848266 61277,6917.855,95.437,540.919,538.521,0.0
53800.0,STARLINK-4720,PAYLOAD,2023-10-19 05:14:28,15.08851253,0.0001564,53.2173,220.7392,104.1123,256.0043,0.00013842,1.916e-05,0.0,0 STARLINK-4720,1 53800U 22111AD  23292.21838785  .00001916  00000-0  13842-3 0  9991,2 53800  53.2173 220.7392 0001564 104.1123 256.0043 15.08851253 62109,6917.846,95.437,540.793,538.629,0.0
53800.0,STARLINK-4720,PAYLOAD,2023-10-19 19:32:57,15.08841228,0.0001686,53.2174,218.0633,101.507,258.6112,1.7748e-05,-6e-08,0.0,0 STARLINK-4720,1 53800U 22111AD  23292.81455730 -.00000006  00000-0  17748-4 0  9992,2 53800  53.2174 218.0633 0001686 101.5070 258.6112 15.08841228 61380,6917.877,95.437,540.908,538.575,0.0
53800.0,STARLINK-4720,PAYLOAD,2023-10-19 22:43:43,15.08843299,0.0001674,53.2159,217.4698,106.4858,253.6318,4.5972e-05,4.44e-06,0.0,0 STARLINK-4720,1 53800U 22111AD  23292.94703449  .00000444  00000-0  45972-4 0  9994,2 53800  53.2159 217.4698 0001674 106.4858 253.6318 15.08843299 62218,6917.87,95.437,540.893,538.577,0.0
53800.0,STARLINK-4720,PAYLOAD,2023-10-20 01:54:29,15.08851022,0.0001439,53.2175,216.8744,93.2526,266.8631,5.2653e-05,5.5e-06,0.0,0 STARLINK-4720,1 53800U 22111AD  23293.07950982  .00000550  00000-0  52653-4 0  9997,2 53800  53.2175 216.8744 0001439  93.2526 266.8631 15.08851022 61424,6917.847,95.437,540.707,538.716,0.0
